{
    "links": {
        "self": "http://www.neowsapp.com/rest/v1/neo/3843780?api_key=iIulBulltgU6a56xZRHN4H3l9WmuAYTsLGpBGhQ2"
    },
    "id": "3843780",
    "neo_reference_id": "3843780",
    "name": "(2019 RC1)",
    "designation": "2019 RC1",
    "nasa_jpl_url": "http://ssd.jpl.nasa.gov/sbdb.cgi?sstr=3843780",
    "absolute_magnitude_h": 28.9,
    "estimated_diameter": {
        "kilometers": {
            "estimated_diameter_min": 0.004411182,
            "estimated_diameter_max": 0.0098637028
        },
        "meters": {
            "estimated_diameter_min": 4.411182,
            "estimated_diameter_max": 9.8637028131
        },
        "miles": {
            "estimated_diameter_min": 0.0027409806,
            "estimated_diameter_max": 0.0061290189
        },
        "feet": {
            "estimated_diameter_min": 14.4723823528,
            "estimated_diameter_max": 32.3612307372
        }
    },
    "is_potentially_hazardous_asteroid": false,
    "close_approach_data": [
        {
            "close_approach_date": "2019-09-07",
            "close_approach_date_full": "2019-Sep-07 09:19",
            "epoch_date_close_approach": 1567847940000,
            "relative_velocity": {
                "kilometers_per_second": "21.2939740841",
                "kilometers_per_hour": "76658.3067028075",
                "miles_per_hour": "47632.4906287528"
            },
            "miss_distance": {
                "astronomical": "0.0027216493",
                "lunar": "1.0587215777",
                "kilometers": "407152.938166991",
                "miles": "252993.1043308358"
            },
            "orbiting_body": "Moon"
        },
        {
            "close_approach_date": "2019-09-07",
            "close_approach_date_full": "2019-Sep-07 10:48",
            "epoch_date_close_approach": 1567853280000,
            "relative_velocity": {
                "kilometers_per_second": "20.3570628925",
                "kilometers_per_hour": "73285.4264131098",
                "miles_per_hour": "45536.7139843015"
            },
            "miss_distance": {
                "astronomical": "0.00123058",
                "lunar": "0.47869562",
                "kilometers": "184092.1468646",
                "miles": "114389.55574748"
            },
            "orbiting_body": "Earth"
        }
    ],
    "orbital_data": {
        "orbit_id": "2",
        "orbit_determination_date": "2019-09-07 05:54:25",
        "first_observation_date": "2019-09-05",
        "last_observation_date": "2019-09-07",
        "data_arc_in_days": 2,
        "observations_used": 31,
        "orbit_uncertainty": "8",
        "minimum_orbit_intersection": ".00123458",
        "jupiter_tisserand_invariant": "3.339",
        "epoch_osculation": "2458732.5",
        "eccentricity": ".7097340409366624",
        "semi_major_axis": "2.131224007858386",
        "inclination": "5.222468554964824",
        "ascending_node_longitude": "163.511899519627",
        "orbital_period": "1136.428394938534",
        "perihelion_distance": ".6186217806198246",
        "perihelion_argument": "266.7766521056853",
        "aphelion_distance": "3.643826235096947",
        "perihelion_time": "2458780.711485345323",
        "mean_anomaly": "344.7274717865044",
        "mean_motion": ".3167819473742307",
        "equinox": "J2000",
        "orbit_class": {
            "orbit_class_type": "APO",
            "orbit_class_description": "Near-Earth asteroid orbits which cross the Earth’s orbit similar to that of 1862 Apollo",
            "orbit_class_range": "a (semi-major axis) > 1.0 AU; q (perihelion) < 1.017 AU"
        }
    },
    "is_sentry_object": false
}